ORBITAL FACTORY 2 (OF-2)
1 45113U 19071C   20220.12198575  .00002126  00000-0  76050-4 0  9999
2 45113  51.6432 118.7564 0012372 239.0534 120.9232 15.33503880 28904
M2 PATHFINDER           
1 45727U 20037E   20219.73163533  .00000652  00000-0  71034-4 0  9994
2 45727  97.7039  38.6877 0014041 130.3218 229.9168 14.91215015  5516
